ORBCOMM FM33            
1 25983U 99065D   24139.55842888  .00003735  00000+0  12758-2 0  9995
2 25983  45.0288  71.8584 0008522 244.8878 285.0027 14.37731228279221
ORBCOMM FM36            
1 25984U 99065E   24139.36823329  .00002995  00000+0  10777-2 0  9990
2 25984  45.0379 158.3956 0001284 133.1683 226.9273 14.35617063277637
ORBCOMM FM35            
1 25985U 99065F   24139.34288248  .00002570  00000+0  93976-3 0  9996
2 25985  45.0377 161.1892 0004649 244.1640 115.8729 14.35186919278028
ORBCOMM FM34            
1 25986U 99065G   24139.31348857  .00002692  00000+0  98245-3 0  9996
2 25986  45.0371 161.8642 0003312 199.7569 160.3151 14.35154195278131
ORBCOMM FM38            
1 33060U 08031A   24139.41084239  .00005970  00000+0  85406-3 0  9990
2 33060  48.4419  31.3455 0005415 151.8494 208.2714 14.77612965856294
ORBCOMM FM41            
1 33061U 08031B   24139.49006176  .00005954  00000+0  85735-3 0  9990
2 33061  48.4450  37.6096 0004492 137.8859  33.0321 14.77340800855803
ORBCOMM FM29            
1 33062U 08031C   24139.47868255  .00006145  00000+0  88510-3 0  9990
2 33062  48.4401  45.6995 0006326 134.2244  35.9252 14.77275402855713
ORBCOMM FM39            
1 33063U 08031D   24139.48519999  .00004938  00000+0  73393-3 0  9991
2 33063  48.4408  66.2445 0007083 107.5091 252.6597 14.76268807855411
